[{"OBJECT_NAME":"DONGPO 10","OBJECT_ID":"2022-167H","EPOCH":"2026-03-09T22:44:56.137344","MEAN_MOTION":15.322785,"ECCENTRICITY":0.00061655,"INCLINATION":97.685,"RA_OF_ASC_NODE":235.0962,"ARG_OF_PERICENTER":106.9526,"MEAN_ANOMALY":253.2392,"EPHEMERIS_TYPE":0,"CLASSIFICATION_TYPE":"U","NORAD_CAT_ID":54689,"ELEMENT_SET_NO":999,"REV_AT_EPOCH":18015,"BSTAR":0.00049390523,"MEAN_MOTION_DOT":0.00015333,"MEAN_MOTION_DDOT":0},{"OBJECT_NAME":"STARLINK-31296","OBJECT_ID":"2024-020D","EPOCH":"2026-03-09T21:13:17.648256","MEAN_MOTION":15.30115201,"ECCENTRICITY":0.00013739,"INCLINATION":53.16,"RA_OF_ASC_NODE":295.7482,"ARG_OF_PERICENTER":95.0661,"MEAN_ANOMALY":265.0496,"EPHEMERIS_TYPE":0,"CLASSIFICATION_TYPE":"U","NORAD_CAT_ID":58879,"ELEMENT_SET_NO":999,"REV_AT_EPOCH":11846,"BSTAR":0.0012468524,"MEAN_MOTION_DOT":0.00036654,"MEAN_MOTION_DDOT":0}]
